[{"OBJECT_NAME":"OBJECT C","OBJECT_ID":"2023-104C","EPOCH":"2026-03-09T22:39:44.230752","MEAN_MOTION":15.26846312,"ECCENTRICITY":0.00113074,"INCLINATION":97.273,"RA_OF_ASC_NODE":135.3333,"ARG_OF_PERICENTER":3.876,"MEAN_ANOMALY":356.2565,"EPHEMERIS_TYPE":0,"CLASSIFICATION_TYPE":"U","NORAD_CAT_ID":57426,"ELEMENT_SET_NO":999,"REV_AT_EPOCH":14663,"BSTAR":0.00062618506,"MEAN_MOTION_DOT":0.00016495,"MEAN_MOTION_DDOT":0},{"OBJECT_NAME":"STARLINK-31635","OBJECT_ID":"2024-073A","EPOCH":"2026-03-09T01:25:51.771072","MEAN_MOTION":15.27589186,"ECCENTRICITY":0.00013593,"INCLINATION":43.0012,"RA_OF_ASC_NODE":321.2045,"ARG_OF_PERICENTER":281.5119,"MEAN_ANOMALY":78.558,"EPHEMERIS_TYPE":0,"CLASSIFICATION_TYPE":"U","NORAD_CAT_ID":59511,"ELEMENT_SET_NO":999,"REV_AT_EPOCH":10608,"BSTAR":-0.00021782465,"MEAN_MOTION_DOT":-6.253e-5,"MEAN_MOTION_DDOT":0}]
